STARLINK-2365_new
1 17905C 21021AX  21326.19184558 -.00021088  00000-0 -14129-2 0  3260
2 17905  53.0546 102.8760 0001340  84.2460 331.5272 15.06422270    19
STARLINK-2365_old
1 27905C 21021AX  21325.14322337  .00001679  00000-0  11245-3 0  3251
2 27905  53.0541 107.5833 0001416  86.6908  39.1984 15.06401546    18
